NORAD_CAT_ID,OBJECT_NAME,OBJECT_TYPE,EPOCH,MEAN_MOTION,ECCENTRICITY,INCLINATION,RA_OF_ASC_NODE,ARG_OF_PERICENTER,MEAN_ANOMALY,BSTAR,MEAN_MOTION_DOT,MEAN_MOTION_DDOT,TLE_LINE0,TLE_LINE1,TLE_LINE2,SEMIMAJOR_AXIS,PERIOD,APOGEE,PERIGEE,DECAYED
53928.0,STARLINK-5009,PAYLOAD,2023-10-01 11:16:23,15.08850099,0.0001477,53.2177,340.3691,90.082,270.0342,9.5865e-05,1.238e-05,0.0,0 STARLINK-5009,1 53928U 22119AU  23274.46972211  .00001238  00000-0  95865-4 0  9993,2 53928  53.2177 340.3691 0001477  90.0820 270.0342 15.08850099 57159,6917.85,95.437,540.736,538.693,0.0
53928.0,STARLINK-5009,PAYLOAD,2023-10-02 11:07:11,15.08832194,0.0001459,53.2176,335.9145,84.1318,275.984,-0.00015523,-2.757e-05,0.0,0 STARLINK-5009,1 53928U 22119AU  23275.46333149 -.00002757  00000-0 -15523-3 0  9996,2 53928  53.2176 335.9145 0001459  84.1318 275.9840 15.08832194 57308,6917.904,95.438,540.779,538.76,0.0
53928.0,STARLINK-5009,PAYLOAD,2023-10-02 20:39:30,15.08834385,0.000161,53.2184,334.1307,83.0534,277.0641,4.068e-05,3.59e-06,0.0,0 STARLINK-5009,1 53928U 22119AU  23275.86077436  .00000359  00000-0  40680-4 0  9991,2 53928  53.2184 334.1307 0001610  83.0534 277.0641 15.08834385 57783,6917.898,95.438,540.876,538.649,0.0
53928.0,STARLINK-5009,PAYLOAD,2023-10-03 10:57:58,15.08851757,0.0001453,53.2173,331.453,83.0322,277.0836,0.00055721,8.594e-05,0.0,0 STARLINK-5009,1 53928U 22119AU  23276.45693206  .00008594  00000-0  55721-3 0  9996,2 53928  53.2173 331.4530 0001453  83.0322 277.0836 15.08851757 57451,6917.844,95.437,540.715,538.704,0.0
53928.0,STARLINK-5009,PAYLOAD,2023-10-03 12:33:22,15.08858363,0.0001609,53.2174,331.1546,75.7851,284.332,0.00087905,0.00013737,0.0,0 STARLINK-5009,1 53928U 22119AU  23276.52317186  .00013737  00000-0  87905-3 0  9998,2 53928  53.2174 331.1546 0001609  75.7851 284.3320 15.08858363 57880,6917.824,95.436,540.802,538.576,0.0
53928.0,STARLINK-5009,PAYLOAD,2023-10-04 04:27:13,15.08845624,0.0002375,53.219,328.1823,91.5443,268.5822,0.00015105,2.117e-05,0.0,0 STARLINK-5009,1 53928U 22119AU  23277.18557424  .00002117  00000-0  15105-3 0  9995,2 53928  53.2190 328.1823 0002375  91.5443 268.5822 15.08845624 57568,6917.863,95.437,541.371,538.085,0.0
53928.0,STARLINK-5009,PAYLOAD,2023-10-04 10:48:45,15.08855391,0.0001584,53.217,326.9916,81.9958,278.1214,0.00067207,0.00010429,0.0,0 STARLINK-5009,1 53928U 22119AU  23277.45053167  .00010429  00000-0  67207-3 0  9995,2 53928  53.2170 326.9916 0001584  81.9958 278.1214 15.08855391 58026,6917.833,95.437,540.794,538.603,0.0
53928.0,STARLINK-5009,PAYLOAD,2023-10-04 15:34:55,15.08866186,0.0001544,53.2164,326.0992,89.6327,270.4843,0.0010834,0.00017009,0.0,0 STARLINK-5009,1 53928U 22119AU  23277.64924811  .00017009  00000-0  10834-2 0  9993,2 53928  53.2164 326.0992 0001544  89.6327 270.4843 15.08866186 57638,6917.8,95.436,540.733,538.597,0.0
53928.0,STARLINK-5009,PAYLOAD,2023-10-05 10:39:33,15.0884895,0.0001614,53.2167,322.5316,82.6315,277.486,0.0015873,0.0002507,0.0,0 STARLINK-5009,1 53928U 22119AU  23278.44413406  .00025070  00000-0  15873-2 0  9990,2 53928  53.2167 322.5316 0001614  82.6315 277.4860 15.08848950 57758,6917.853,95.437,540.835,538.601,0.0
53928.0,STARLINK-5009,PAYLOAD,2023-10-05 12:14:56,15.08852472,0.0001631,53.2168,322.2344,81.4652,278.6525,0.0017289,0.00027344,0.0,0 STARLINK-5009,1 53928U 22119AU  23278.51037373  .00027344  00000-0  17289-2 0  9992,2 53928  53.2168 322.2344 0001631  81.4652 278.6525 15.08852472 58180,6917.842,95.437,540.836,538.579,0.0
53928.0,STARLINK-5009,PAYLOAD,2023-10-05 20:11:52,15.08843688,0.0001573,53.2164,320.7462,83.7549,276.3622,0.0010405,0.00016312,0.0,0 STARLINK-5009,1 53928U 22119AU  23278.84157579  .00016312  00000-0  10405-2 0  9995,2 53928  53.2164 320.7462 0001573  83.7549 276.3622 15.08843688 58233,6917.869,95.437,540.822,538.646,0.0
53928.0,STARLINK-5009,PAYLOAD,2023-10-06 02:33:24,15.08842596,0.0001897,53.2158,319.5582,80.9748,279.1459,0.0013561,0.00021362,0.0,0 STARLINK-5009,1 53928U 22119AU  23279.10653768  .00021362  00000-0  13561-2 0  9993,2 53928  53.2158 319.5582 0001897  80.9748 279.1459 15.08842596 57857,6917.872,95.437,541.05,538.425,0.0
53928.0,STARLINK-5009,PAYLOAD,2023-10-06 10:30:20,15.08846435,0.0001613,53.2164,318.0701,84.8275,275.2901,0.0011472,0.0001802,0.0,0 STARLINK-5009,1 53928U 22119AU  23279.43773734  .00018020  00000-0  11472-2 0  9991,2 53928  53.2164 318.0701 0001613  84.8275 275.2901 15.08846435 58323,6917.861,95.437,540.842,538.61,0.0
53928.0,STARLINK-5009,PAYLOAD,2023-10-06 20:02:39,15.08839104,0.0001008,53.2175,316.2855,97.6219,262.4887,0.00039676,6.032e-05,0.0,0 STARLINK-5009,1 53928U 22119AU  23279.83517618  .00006032  00000-0  39676-3 0  9999,2 53928  53.2175 316.2855 0001008  97.6219 262.4887 15.08839104 58385,6917.883,95.438,540.445,539.051,0.0
53928.0,STARLINK-5009,PAYLOAD,2023-10-07 11:56:30,15.08858446,0.000169,53.2165,313.3125,89.3887,270.7299,0.0017646,0.00027922,0.0,0 STARLINK-5009,1 53928U 22119AU  23280.49757650  .00027922  00000-0  17646-2 0  9998,2 53928  53.2165 313.3125 0001690  89.3887 270.7299 15.08858446 58488,6917.824,95.436,540.858,538.52,0.0
53928.0,STARLINK-5009,PAYLOAD,2023-10-07 13:31:53,15.08862101,0.0001686,53.2165,313.0151,88.7752,271.3433,0.0017329,0.00027416,0.0,0 STARLINK-5009,1 53928U 22119AU  23280.56381550  .00027416  00000-0  17329-2 0  9994,2 53928  53.2165 313.0151 0001686  88.7752 271.3433 15.08862101 58078,6917.813,95.436,540.844,538.511,0.0
53928.0,STARLINK-5009,PAYLOAD,2023-10-07 19:53:26,15.08838173,0.0002103,53.2175,311.8253,86.525,273.5983,0.00086711,0.00013538,0.0,0 STARLINK-5009,1 53928U 22119AU  23280.82878227  .00013538  00000-0  86711-3 0  9997,2 53928  53.2175 311.8253 0002103  86.5250 273.5983 15.08838173 58539,6917.886,95.438,541.206,538.296,0.0
53928.0,STARLINK-5009,PAYLOAD,2023-10-08 02:14:59,15.08846824,0.0001976,53.2165,310.6357,87.4944,272.6275,0.0013466,0.00021212,0.0,0 STARLINK-5009,1 53928U 22119AU  23281.09374172  .00021212  00000-0  13466-2 0  9991,2 53928  53.2165 310.6357 0001976  87.4944 272.6275 15.08846824 58151,6917.86,95.437,541.091,538.358,0.0
53928.0,STARLINK-5009,PAYLOAD,2023-10-08 08:36:31,15.08844077,0.0001863,53.2175,309.4465,84.5374,275.5831,0.0013152,0.00020708,0.0,0 STARLINK-5009,1 53928U 22119AU  23281.35870160  .00020708  00000-0  13152-2 0  9999,2 53928  53.2175 309.4465 0001863  84.5374 275.5831 15.08844077 58190,6917.868,95.437,541.022,538.444,0.0
53928.0,STARLINK-5009,PAYLOAD,2023-10-08 11:47:17,15.08854065,0.0001857,53.2173,308.8511,87.3332,272.7873,0.0009736,0.00015247,0.0,0 STARLINK-5009,1 53928U 22119AU  23281.49117967  .00015247  00000-0  97360-3 0  9999,2 53928  53.2173 308.8511 0001857  87.3332 272.7873 15.08854065 58633,6917.837,95.437,540.987,538.418,0.0
53928.0,STARLINK-5009,PAYLOAD,2023-10-08 13:22:41,15.08853716,0.0001775,53.2174,308.5537,83.4751,276.6443,0.0012654,0.00019916,0.0,0 STARLINK-5009,1 53928U 22119AU  23281.55741983  .00019916  00000-0  12654-2 0  9996,2 53928  53.2174 308.5537 0001775  83.4751 276.6443 15.08853716 58649,6917.838,95.437,540.931,538.476,0.0
53928.0,STARLINK-5009,PAYLOAD,2023-10-09 02:05:46,15.08858307,0.0002127,53.2172,306.1745,81.5352,278.5881,0.0011826,0.00018593,0.0,0 STARLINK-5009,1 53928U 22119AU  23282.08734045  .00018593  00000-0  11826-2 0  9996,2 53928  53.2172 306.1745 0002127  81.5352 278.5881 15.08858307 58301,6917.824,95.436,541.161,538.218,0.0
53928.0,STARLINK-5009,PAYLOAD,2023-10-09 08:27:18,15.08867126,0.0001758,53.2174,304.9862,84.0488,276.0704,0.0018221,0.00028852,0.0,0 STARLINK-5009,1 53928U 22119AU  23282.35229670  .00028852  00000-0  18221-2 0  9994,2 53928  53.2174 304.9862 0001758  84.0488 276.0704 15.08867126 58762,6917.797,95.436,540.879,538.446,0.0
53928.0,STARLINK-5009,PAYLOAD,2023-10-09 13:13:27,15.08873619,0.0001761,53.2177,304.0942,83.237,276.8822,0.0015524,0.00024528,0.0,0 STARLINK-5009,1 53928U 22119AU  23282.55101280  .00024528  00000-0  15524-2 0  9991,2 53928  53.2177 304.0942 0001761  83.2370 276.8822 15.08873619 58796,6917.778,95.435,540.861,538.424,0.0
53928.0,STARLINK-5009,PAYLOAD,2023-10-10 01:56:33,15.08846161,0.0002427,53.2176,301.7149,79.2988,280.8277,0.00089698,0.00014019,0.0,0 STARLINK-5009,1 53928U 22119AU  23283.08093933  .00014019  00000-0  89698-3 0  9993,2 53928  53.2176 301.7149 0002427  79.2988 280.8277 15.08846161 58452,6917.862,95.437,541.406,538.048,0.0
53928.0,STARLINK-5009,PAYLOAD,2023-10-10 08:18:05,15.08850986,0.0001749,53.2171,300.5261,95.2176,264.9015,0.0017305,0.00027369,0.0,0 STARLINK-5009,1 53928U 22119AU  23283.34589729  .00027369  00000-0  17305-2 0  9992,2 53928  53.2171 300.5261 0001749  95.2176 264.9015 15.08850986 58916,6917.847,95.437,540.922,538.502,0.0
53928.0,STARLINK-5009,PAYLOAD,2023-10-10 17:50:24,15.08834359,0.0003205,53.2174,298.7401,90.9656,269.1704,0.00048467,7.433e-05,0.0,0 STARLINK-5009,1 53928U 22119AU  23283.74334450  .00007433  00000-0  48467-3 0  9999,2 53928  53.2174 298.7401 0003205  90.9656 269.1704 15.08834359 58555,6917.898,95.438,541.98,537.545,0.0
53928.0,STARLINK-5009,PAYLOAD,2023-10-11 08:08:53,15.0882913,0.0001944,53.2172,296.0664,96.8679,263.2534,0.00056452,8.705e-05,0.0,0 STARLINK-5009,1 53928U 22119AU  23284.33950600  .00008705  00000-0  56452-3 0  9992,2 53928  53.2172 296.0664 0001944  96.8679 263.2534 15.08829130 58640,6917.914,95.438,541.123,538.434,0.0
53928.0,STARLINK-5009,PAYLOAD,2023-10-11 11:19:39,15.08835639,0.0001865,53.2173,295.4714,94.8639,265.2566,0.00063993,9.91e-05,0.0,0 STARLINK-5009,1 53928U 22119AU  23284.47198592  .00009910  00000-0  63993-3 0  9998,2 53928  53.2173 295.4714 0001865  94.8639 265.2566 15.08835639 59083,6917.894,95.438,541.049,538.469,0.0
53928.0,STARLINK-5009,PAYLOAD,2023-10-12 09:35:03,15.08845734,0.0001803,53.2162,291.3084,92.8722,267.2477,0.00071838,0.00011165,0.0,0 STARLINK-5009,1 53928U 22119AU  23285.39935009  .00011165  00000-0  71838-3 0  9994,2 53928  53.2162 291.3084 0001803  92.8722 267.2477 15.08845734 58808,6917.863,95.437,540.975,538.481,0.0
